{
    "places": [
        {
            "id": "place1",
            "placeName": "Chicago",
            "placeState": "IL",
            "placeImage": "../imgs/chicago.jpg",
            "favRestraunt": "Giordano's",
            "favBar": "Reggie's",
            "favHotel": "The Murder Hotel",
            "favAttr": "Navy Pier"
        },
        {
            "id": "place2",
            "placeName": "Seattle",
            "placeState": "WA",
            "placeImage": "../imgs/seattle.jpg",
            "favRestraunt": "Dumpling Tzar",
            "favBar": "Barboza",
            "favHotel": "Motel 6",
            "favAttr": "Cal Anderson Park"
        },
        {
            "id": "place3",
            "placeName": "Mt Shasta",
            "placeState": "CA",
            "placeImage": "../imgs/shasta.jpg",
            "favRestraunt": "Black Bear Diner",
            "favBar": "The Liquor Store",
            "favHotel": "The Woods",
            "favAttr": "Mt Shasta City Park"
        },
        {
            "id": "place4",
            "placeName": "Durango",
            "placeState": "CO",
            "placeImage": "../imgs/durango.jpg",
            "favRestraunt": "Animas Brewing Company",
            "favBar": "Animas Brewing Company",
            "favHotel": "Eddie's House",
            "favAttr": "Snowboarding"
        },
        {
            "id": "place5",
            "placeName": "Bend",
            "placeState": "OR" ,
            "placeImage": "../imgs/bend.jpg",
            "favRestraunt": "Packed Lunch",
            "favBar": "Liquor Store",
            "favHotel": "The Woods",
            "favAttr": "Snowboarding"
        },
        {
            "id": "place6",
            "placeName": "Index",
            "placeState": "WA",
            "placeImage": "../imgs/index.jpg",
            "favRestraunt": "Sky Deli & Pizza",
            "favBar": "Liquor Store",
            "favHotel": "Tad's House",
            "favAttr": "Snowboarding"
        },
        {
            "id": "place7",
            "placeName": "Mt Hood",
            "placeState": "OR",
            "placeImage": "../imgs/hood.jpg",
            "favRestraunt": "Packed Lunch",
            "favBar": "Liquor Store",
            "favHotel": "The Woods",
            "favAttr": "Snowboarding"
        },
        {
            "id": "place8",
            "placeName": "Mt Baker",
            "placeState": "WA",
            "placeImage": "../imgs/baker.jpg",
            "favRestraunt": "Packed Lunch",
            "favBar": "Lquor Store",
            "favHotel": "The Woods",
            "favAttr": "Snowboarding"
        },
        {
            "id": "place9",
            "placeName": "Snoqualmie Pass",
            "placeState": "WA",
            "placeImage": "../imgs/sno.jpg",
            "favRestraunt": "Packed Lunch",
            "favBar": "Lquor Store",
            "favHotel": "The Woods",
            "favAttr": "Snowboarding"
        },
        {
            "id": "place10",
            "placeName": "Scanton",
            "placeState": "PA",
            "placeImage": "../imgs/scranton.png",
            "favRestraunt": "Chili's",
            "favBar": "Poor Richard's Pub",
            "favHotel": "Hotel Hell",
            "favAttr": "The Steamtown Mall"
        }
    ]
}